NORAD_CAT_ID,OBJECT_NAME,OBJECT_TYPE,EPOCH,MEAN_MOTION,ECCENTRICITY,INCLINATION,RA_OF_ASC_NODE,ARG_OF_PERICENTER,MEAN_ANOMALY,BSTAR,MEAN_MOTION_DOT,MEAN_MOTION_DDOT,TLE_LINE0,TLE_LINE1,TLE_LINE2,SEMIMAJOR_AXIS,PERIOD,APOGEE,PERIGEE,DECAYED
49444.0,STARLINK-3126,PAYLOAD,2022-01-03 06:00:00,15.73198723,0.000215,53.2147,242.0262,30.9516,41.2742,5.3001e-05,6.823e-05,0.0,0 STARLINK-3126,1 49444U 21104AN  22003.25001157  .00006823  00000-0  53001-4 0  9993,2 49444  53.2147 242.0262 0002150  30.9516  41.2742 15.73198723  9251,6727.899,91.533,351.21,348.31699999999995,0.0
49444.0,STARLINK-3126,PAYLOAD,2022-01-03 14:00:01,15.73189559,0.0001877,53.2146,240.3752,35.697,125.4558,0.00045393,0.00063543,0.0,0 STARLINK-3126,1 49444U 21104AN  22003.58334491  .00063543  00000-0  45393-3 0  9995,2 49444  53.2146 240.3752 0001877  35.6970 125.4558 15.73189559  3695,6727.925,91.534,351.05300000000005,348.527,0.0
49444.0,STARLINK-3126,PAYLOAD,2022-01-03 22:00:00,15.73238264,0.0002041,53.2147,238.7276,30.3671,219.7275,-0.00059265,-0.00083122,0.0,0 STARLINK-3126,1 49444U 21104AN  22003.91667824 -.00083122  00000-0 -59265-3 0  9991,2 49444  53.2147 238.7276 0002041  30.3671 219.7275 15.73238264  3693,6727.786,91.531,351.024,348.278,0.0
49444.0,STARLINK-3126,PAYLOAD,2022-01-04 12:00:00,15.73169088,0.0001868,53.2149,235.8391,28.8999,286.821,0.00052619,0.00073782,0.0,0 STARLINK-3126,1 49444U 21104AN  22004.50001157  .00073782  00000-0  52619-3 0  9993,2 49444  53.2149 235.8391 0001868  28.8999 286.8210 15.73169088  9453,6727.983,91.535,351.105,348.592,0.0
49444.0,STARLINK-3126,PAYLOAD,2022-01-04 14:00:01,15.73182719,0.0001866,53.215,235.4262,31.2638,36.7667,0.00041107,0.00057425,0.0,0 STARLINK-3126,1 49444U 21104AN  22004.58334491  .00057425  00000-0  41107-3 0  9997,2 49444  53.2150 235.4262 0001866  31.2638  36.7667 15.73182719  3665,6727.944,91.534,351.065,348.55400000000014,0.0
49444.0,STARLINK-3126,PAYLOAD,2022-01-04 21:20:09,15.73225888,0.0001881,53.2156,233.9147,34.0558,326.0583,8.3539e-06,5.53e-06,0.0,0 STARLINK-3126,1 49444U 21104AN  22004.88899727  .00000553  00000-0  83539-5 0  9995,2 49444  53.2156 233.9147 0001881  34.0558 326.0583 15.73225888  8443,6727.821,91.532,350.952,348.421,0.0
49444.0,STARLINK-3126,PAYLOAD,2022-01-05 06:00:00,15.73211501,0.000203,53.2143,232.1284,25.5839,220.3451,-0.00040249,-0.00056761,0.0,0 STARLINK-3126,1 49444U 21104AN  22005.25001157 -.00056761  00000-0 -40249-3 0  9992,2 49444  53.2143 232.1284 0002030  25.5839 220.3451 15.73211501  9578,6727.861999999999,91.533,351.093,348.362,0.0
49444.0,STARLINK-3126,PAYLOAD,2022-01-05 14:00:01,15.73162137,0.0001875,53.2146,230.4775,32.7309,302.1212,-0.00017977,-0.00025734,0.0,0 STARLINK-3126,1 49444U 21104AN  22005.58334491 -.00025734  00000-0 -17977-3 0  9996,2 49444  53.2146 230.4775 0001875  32.7309 302.1212 15.73162137  3696,6728.003000000002,91.535,351.13,348.607,0.0
49444.0,STARLINK-3126,PAYLOAD,2022-01-05 22:00:00,15.73141761,0.0002144,53.2147,228.8302,31.5703,32.1585,4.8412e-05,6.162e-05,0.0,0 STARLINK-3126,1 49444U 21104AN  22005.91667824  .00006162  00000-0  48412-4 0  9993,2 49444  53.2147 228.8302 0002144  31.5703  32.1585 15.73141761  3692,6728.061,91.537,351.369,348.4840000000001,0.0
49444.0,STARLINK-3126,PAYLOAD,2022-01-06 06:00:00,15.73174197,0.0002127,53.2149,227.18,30.8042,121.7804,-0.00014692,-0.00021168,0.0,0 STARLINK-3126,1 49444U 21104AN  22006.25001157 -.00021168  00000-0 -14692-3 0  9999,2 49444  53.2149 227.1800 0002127  30.8042 121.7804 15.73174197  9737,6727.969,91.535,351.265,348.403,0.0
49444.0,STARLINK-3126,PAYLOAD,2022-01-06 14:00:01,15.73156334,0.0002026,53.2153,225.529,35.7764,205.6884,0.00028695,0.00039768,0.0,0 STARLINK-3126,1 49444U 21104AN  22006.58334491  .00039768  00000-0  28695-3 0  9996,2 49444  53.2153 225.5290 0002026  35.7764 205.6884 15.73156334  3669,6728.02,91.536,351.24800000000016,348.522,0.0
49444.0,STARLINK-3126,PAYLOAD,2022-01-06 22:00:00,15.7317544,0.000231,53.2153,223.8817,33.4869,296.8749,8.3966e-05,0.00011167,0.0,0 STARLINK-3126,1 49444U 21104AN  22006.91667824  .00011167  00000-0  83966-4 0  9998,2 49444  53.2153 223.8817 0002310  33.4869 296.8749 15.73175440  9838,6727.965,91.535,351.384,348.276,0.0
49444.0,STARLINK-3126,PAYLOAD,2022-01-07 14:00:01,15.73197264,0.0002075,53.2153,220.5808,38.8036,109.3806,0.00025161,0.00034835,0.0,0 STARLINK-3126,1 49444U 21104AN  22007.58334491  .00034835  00000-0  25161-3 0  9992,2 49444  53.2153 220.5808 0002075  38.8036 109.3806 15.73197264  3660,6727.903,91.533,351.164,348.372,0.0
49444.0,STARLINK-3126,PAYLOAD,2022-01-07 22:00:00,15.73206945,0.0002337,53.2154,218.9334,34.3667,202.76,0.00015398,0.00021051,0.0,0 STARLINK-3126,1 49444U 21104AN  22007.91667824  .00021051  00000-0  15398-3 0  9995,2 49444  53.2154 218.9334 0002337  34.3667 202.7600 15.73206945  3665,6727.875,91.533,351.31300000000016,348.168,0.0
49444.0,STARLINK-3126,PAYLOAD,2022-01-08 00:00:00,15.73194282,0.0002344,53.2154,218.5212,33.6162,315.7505,0.00041243,0.0005765,0.0,0 STARLINK-3126,1 49444U 21104AN  22008.00001157  .00057650  00000-0  41243-3 0  9999,2 49444  53.2154 218.5212 0002344  33.6162 315.7505 15.73194282 10001,6727.911,91.534,351.353,348.199,0.0
49444.0,STARLINK-3126,PAYLOAD,2022-01-08 14:00:01,15.73245463,0.0002206,53.216,215.632,38.6645,16.3779,0.00023968,0.00033217,0.0,0 STARLINK-3126,1 49444U 21104AN  22008.58334491  .00033217  00000-0  23968-3 0  9999,2 49444  53.2160 215.6320 0002206  38.6645  16.3779 15.73245463  3674,6727.766,91.531,351.115,348.146,0.0
49444.0,STARLINK-3126,PAYLOAD,2022-01-08 22:00:00,15.73269876,0.0002417,53.2161,213.9844,33.8242,110.1999,-0.00041606,-0.0005878999999999,0.0,0 STARLINK-3126,1 49444U 21104AN  22008.91667824 -.00058790  00000-0 -41606-3 0  9999,2 49444  53.2161 213.9844 0002417  33.8242 110.1999 15.73269876 10153,6727.696,91.529,351.18699999999984,347.935,0.0
49444.0,STARLINK-3126,PAYLOAD,2022-01-09 14:00:01,15.73235466,0.0002086,53.2158,210.6835,33.7601,288.2166,0.00024453,0.0003389,0.0,0 STARLINK-3126,1 49444U 21104AN  22009.58334491  .00033890  00000-0  24453-3 0  9997,2 49444  53.2158 210.6835 0002086  33.7601 288.2166 15.73235466 10255,6727.794,91.531,351.06199999999984,348.256,0.0
49444.0,STARLINK-3126,PAYLOAD,2022-01-09 22:00:00,15.73243649,0.0002297,53.2159,209.036,29.3005,21.6657,0.00034098,0.00047598,0.0,0 STARLINK-3126,1 49444U 21104AN  22009.91667824  .00047598  00000-0  34098-3 0  9999,2 49444  53.2159 209.0360 0002297  29.3005  21.6657 15.73243649  3689,6727.771,91.531,351.181,348.09,0.0
49444.0,STARLINK-3126,PAYLOAD,2022-01-10 06:00:00,15.7330018,0.000209,53.216,207.3849,24.2087,115.743,-0.0012513,-0.00173426,0.0,0 STARLINK-3126,1 49444U 21104AN  22010.25001157 -.00173426  00000-0 -12513-2 0  9998,2 49444  53.2160 207.3849 0002090  24.2087 115.7430 15.73300180 10359,6727.61,91.527,350.881,348.069,0.0
49444.0,STARLINK-3126,PAYLOAD,2022-01-10 14:00:01,15.73178424,0.0001922,53.2164,205.7348,20.9669,207.9646,2.1112e-05,2.34e-05,0.0,0 STARLINK-3126,1 49444U 21104AN  22010.58334491  .00002340  00000-0  21112-4 0  9995,2 49444  53.2164 205.7348 0001922  20.9669 207.9646 15.73178424 10415,6727.956999999999,91.534,351.115,348.529,0.0
49444.0,STARLINK-3126,PAYLOAD,2022-01-10 22:00:00,15.73143291,0.0002222,53.2163,204.0873,15.7408,302.1026,-7.3991e-05,-0.00010967,0.0,0 STARLINK-3126,1 49444U 21104AN  22010.91667824 -.00010967  00000-0 -73991-4 0  9999,2 49444  53.2163 204.0873 0002222  15.7408 302.1026 15.73143291  3692,6728.057,91.536,351.417,348.427,0.0
49444.0,STARLINK-3126,PAYLOAD,2022-01-11 06:00:00,15.7314379,0.0002043,53.2159,202.4364,12.9531,33.7488,9.4124e-05,0.00012578,0.0,0 STARLINK-3126,1 49444U 21104AN  22011.25001157  .00012578  00000-0  94124-4 0  9997,2 49444  53.2159 202.4364 0002043  12.9531  33.7488 15.73143790 10513,6728.055,91.536,351.295,348.546,0.0
49444.0,STARLINK-3126,PAYLOAD,2022-01-11 14:00:01,15.73169537,0.0001997,53.2159,200.7869,15.8542,119.7067,0.00014639,0.00019947,0.0,0 STARLINK-3126,1 49444U 21104AN  22011.58334491  .00019947  00000-0  14639-3 0  9992,2 49444  53.2159 200.7869 0001997  15.8542 119.7067 15.73169537  3680,6727.982,91.535,351.191,348.50300000000016,0.0
49444.0,STARLINK-3126,PAYLOAD,2022-01-11 22:00:00,15.73158282,0.0002314,53.2159,199.1395,13.6314,210.8331,0.00047551,0.00066529,0.0,0 STARLINK-3126,1 49444U 21104AN  22011.91667824  .00066529  00000-0  47551-3 0  9995,2 49444  53.2159 199.1395 0002314  13.6314 210.8331 15.73158282  3673,6728.014,91.536,351.436,348.32199999999995,0.0
49444.0,STARLINK-3126,PAYLOAD,2022-01-12 06:00:00,15.7320489,0.0002155,53.2159,197.4882,14.3116,299.062,0.00012642,0.00017162,0.0,0 STARLINK-3126,1 49444U 21104AN  22012.25001157  .00017162  00000-0  12642-3 0  9996,2 49444  53.2159 197.4882 0002155  14.3116 299.0620 15.73204890 10671,6727.880999999999,91.533,351.196,348.296,0.0
49444.0,STARLINK-3126,PAYLOAD,2022-01-12 14:00:01,15.73236306,0.0002193,53.216,195.8385,17.1211,25.1808,5.1234e-05,6.586e-05,0.0,0 STARLINK-3126,1 49444U 21104AN  22012.58334491  .00006586  00000-0  51234-4 0  9991,2 49444  53.2160 195.8385 0002193  17.1211  25.1808 15.73236306  3701,6727.792,91.531,351.13199999999995,348.181,0.0
49444.0,STARLINK-3126,PAYLOAD,2022-01-13 14:00:01,15.73249091,0.0002367,53.2156,190.8902,21.7526,287.4423,-0.00019687,-0.00028221,0.0,0 STARLINK-3126,1 49444U 21104AN  22013.58334491 -.00028221  00000-0 -19687-3 0  9999,2 49444  53.2156 190.8902 0002367  21.7526 287.4423 15.73249091 10887,6727.755,91.53,351.213,348.028,0.0
49444.0,STARLINK-3126,PAYLOAD,2022-01-13 22:00:00,15.73185786,0.0002593,53.2153,189.2424,18.0186,20.1651,0.00017873,0.00024523,0.0,0 STARLINK-3126,1 49444U 21104AN  22013.91667824  .00024523  00000-0  17873-3 0  9999,2 49444  53.2153 189.2424 0002593  18.0186  20.1651 15.73185786  3671,6727.936,91.534,351.545,348.056,0.0
